TEVEL2-6                
1 63215U 25052F   26068.64958975  .00021046  00000+0  70909-3 0  9996
2 63215  97.4016 325.0381 0004769  95.6604 264.5181 15.30760889 54861
STARLINK-34505          
1 64490U 25133U   26068.53499537  .00039134  00000+0  13246-2 0  9991
2 64490  53.1584 117.5822 0001617  99.3261 260.7923 15.30246488 41142
